[{"OBJECT_NAME":"STARLINK-36936","OBJECT_ID":"2026-039AC","EPOCH":"2026-03-05T16:00:00.999936","MEAN_MOTION":15.9980402,"ECCENTRICITY":0.0001772,"INCLINATION":42.9979,"RA_OF_ASC_NODE":79.7586,"ARG_OF_PERICENTER":277.3415,"MEAN_ANOMALY":161.0232,"EPHEMERIS_TYPE":0,"CLASSIFICATION_TYPE":"U","NORAD_CAT_ID":68012,"ELEMENT_SET_NO":999,"REV_AT_EPOCH":223,"BSTAR":-0.0027588,"MEAN_MOTION_DOT":-0.01448657,"MEAN_MOTION_DDOT":0.00064451},{"OBJECT_NAME":"STARLINK-36967","OBJECT_ID":"2026-039AD","EPOCH":"2026-03-05T16:00:00.999936","MEAN_MOTION":15.99271424,"ECCENTRICITY":0.0001783,"INCLINATION":42.9979,"RA_OF_ASC_NODE":79.7761,"ARG_OF_PERICENTER":273.4356,"MEAN_ANOMALY":158.0561,"EPHEMERIS_TYPE":0,"CLASSIFICATION_TYPE":"U","NORAD_CAT_ID":68013,"ELEMENT_SET_NO":999,"REV_AT_EPOCH":223,"BSTAR":-0.0028669,"MEAN_MOTION_DOT":-0.01460269,"MEAN_MOTION_DDOT":0.00065031},{"OBJECT_NAME":"STARLINK-36985","OBJECT_ID":"2026-039AE","EPOCH":"2026-03-05T16:00:00.999936","MEAN_MOTION":15.99664817,"ECCENTRICITY":0.0001784,"INCLINATION":42.9979,"RA_OF_ASC_NODE":79.7633,"ARG_OF_PERICENTER":275.9053,"MEAN_ANOMALY":160.7263,"EPHEMERIS_TYPE":0,"CLASSIFICATION_TYPE":"U","NORAD_CAT_ID":68014,"ELEMENT_SET_NO":999,"REV_AT_EPOCH":223,"BSTAR":-0.0027794,"MEAN_MOTION_DOT":-0.01447957,"MEAN_MOTION_DDOT":0.00064297}]
